0209P         2014 05  6.3374  0.969480  0.672829  152.4122   62.8192   21.2371  20141021  17.0  2.0  209P/LINEAR                                              MPC 88331
0210P         2014 08 17.2438  0.531298  0.832449  345.8278   93.8212   10.2398  20141021  13.5  4.0  210P/Christensen                                         MPC 89013
0211P         2016 01 27.1994  2.351134  0.339298    4.3770  117.2717   18.8878  20141021  12.5  4.0  211P/Hill                                                MPC 84322
0212P         2016 09 10.2802  1.645113  0.580275   15.0150   98.9071   22.4299  20141021  17.0  2.0  212P/NEAT                                                MPC 75726
0213P         2017 09 26.7236  2.036283  0.398574    3.7894  311.7757   10.4922  20141021  10.5  4.0  213P/Van Ness                                            MPC 88331
0214P         2015 11 12.8462  1.851020  0.487335  190.3000  348.2734   15.2043  20141021  13.0  4.0  214P/LINEAR                                              MPC 79351
0215P         2010 10  9.8026  3.391983  0.210008  249.2925   67.4474   10.3162  20141021  11.0  4.0  215P/NEAT                                                MPC 81861
0216P         2016 05 31.1706  2.150751  0.445082  151.5665  359.8709    9.0475  20141021  13.0  4.0  216P/LINEAR                                              MPC 84322
0217P         2017 07 16.7020  1.234075  0.687765  246.9859  125.4732   12.8560  20141021  12.0  4.0  217P/LINEAR                                              MPC 75726
0218P         2015 04 23.2228  1.171515  0.621741   59.8623  175.8185    2.7159  20141021  16.0  4.0  218P/LINEAR                                              MPC 79348
0219P         2017 02 21.0772  2.365473  0.352006  107.4652  231.0312   11.5291  20141021  11.0  4.0  219P/LINEAR                                              MPC 75727
0220P         2015 06 13.7769  1.553855  0.501373  180.6831  150.1155    8.1252  20141021  15.0  4.0  220P/McNaught                                            MPC 79349
0221P         2015 07 11.6159  1.758537  0.491714   39.9262  229.7615   11.4226  20141021  14.5  4.0  221P/LINEAR                                              MPC 79346
0222P         2014 07  4.5429  0.784325  0.725989  345.4546    7.1246    5.1368  20141021  20.0  4.0  222P/LINEAR                                              MPC 75727
0223P         2010 08 12.8586  2.428572  0.415115   37.9507  346.8178   27.0230  20141021  12.0  4.0  223P/Skiff                                               MPC 75727
0224P         2016 05 24.5333  1.992706  0.416235   16.3135   40.4929   13.4257  20141021  15.5  4.0  224P/LINEAR-NEAT                                         MPC 75727
0225P         2016 08 16.9428  1.323354  0.637693    3.9530   14.2006   21.3412  20141021  18.0  4.0  225P/LINEAR                                              MPC 75727
0226P         2016 09  5.1071  1.775473  0.528996  341.1472   54.0237   44.0156  20141021  12.5  4.0  226P/Pigott-LINEAR-Kowalski                              MPC 84322
0227P         2017 06 21.9015  1.789205  0.501230   90.1470   49.8288    6.5245  20141021  16.5  2.0  227P/Catalina-LINEAR                                     MPC 75727
0228P         2011 08 25.7201  3.430761  0.178314  115.0597   31.0395    7.9103  20141021  14.5  2.0  228P/LINEAR                                              MPC 75728
0229P         2017 05 20.9529  2.452781  0.376311  224.2715  157.9219   26.0692  20141021  13.0  4.0  229P/Gibbs                                               MPC 75728
0230P         2015 11 18.0310  1.485134  0.563233  308.9103  112.3981   14.6539  20141021  13.0  4.0  230P/LINEAR                                              MPC 79352
0231P         2011 05 17.0250  3.027849  0.247581   42.3634  133.0685   12.3315  20141021  14.5  2.0  231P/LINEAR-NEAT                                         MPC 75728
0232P         2019 04  5.1645  2.978918  0.335943   53.5317   56.0907   14.6317  20141021  11.5  4.0  232P/Hill                                                MPC 75728
0233P         2015 06 25.4126  1.786680  0.410744   27.2307   74.9696   11.2784  20141021  15.0  4.0  233P/La Sagra                                            MPC 79349
0234P         2017 06  1.9273  2.850595  0.251927  358.0552  179.7158   11.5251  20141021  12.0  4.0  234P/LINEAR                                              MPC 82322
0235P         2018 03 17.2002  2.737691  0.314705  333.5430  204.4522    8.8988  20141021  12.0  4.0  235P/LINEAR                                              MPC 75728
0236P         2017 11 20.7092  1.837453  0.507466  119.3236  245.6726   16.3318  20141021  14.0  4.0  236P/LINEAR                                              MPC 75728
0237P         2016 10 10.0469  1.982112  0.436392   24.1581  246.1575   14.0722  20141021  14.5  2.0  237P/LINEAR                                              MPC 84322
0238P         2016 10 22.9018  2.364381  0.252641  325.0676   51.6573    1.2649  20141021  14.5  4.0  238P/Read                                                MPC 89731
0239P         2019 01  8.9174  1.645358  0.631918  220.2981  256.0192   11.3148  20141021  17.5  2.0  239P/LINEAR                                              MPC 75729
0240P         2018 05 15.6675  2.129520  0.449623  352.1710   74.9531   23.5214  20141021  12.0  4.0  240P/NEAT                                                MPC 79346
0241P         2010 07 17.6106  1.931320  0.610086  110.5113  305.8174   20.8678  20141021  13.5  4.0  241P/LINEAR                                              MPC 75729
0242P         2012 04  1.9859  3.980590  0.276352  247.6142  180.6990   32.5010  20141021   8.0  4.0  242P/Spahr                                               MPC 81861
0243P         2011 03  1.1284  2.456389  0.358437  283.6386   87.6734    7.6400  20141021  12.5  4.0  243P/NEAT                                                MPC 82322
0244P         2012 01 20.9938  3.922220  0.198375   92.8014  354.1303    2.2590  20141021   9.0  4.0  244P/Scotti                                              MPC 88331
0245P         2018 02  7.8543  2.162197  0.461979  317.2938  316.7699   21.2920  20141021  14.0  4.0  245P/WISE                                                MPC 75729
0246P         2013 01 28.2350  2.878265  0.285047  176.0723   78.7699   15.9712  20141021  10.5  4.0  246P/NEAT                                                MPC 88331
0247P         2011 01  4.9207  1.484335  0.625922   47.4263   54.0887   13.6711  20141021  16.5  2.0  247P/LINEAR                                              MPC 75729
0248P         2011 02  8.1070  2.157104  0.639573  210.1230  207.7967    6.3630  20141021  14.0  4.0  248P/Gibbs                                               MPC 75730
0249P         2015 11 26.6895  0.500715  0.819148   65.1499  239.5537    8.3927  20141021  15.5  4.0  249P/LINEAR                                              MPC 79346
0250P         2018 02  1.4657  2.212079  0.407484   44.9871   73.7289   13.2914  20141021  14.5  4.0  250P/Larson                                              MPC 75730
0251P         2017 07 17.0112  1.730202  0.506067   31.2637  219.4510   23.4219  20141021  16.5  2.0  251P/LINEAR                                              MPC 75730
0252P         2016 03 15.3165  0.996745  0.673477  343.2776  190.9777   10.4023  20141021  17.5  4.0  252P/LINEAR                                              MPC 75730
0253P         2011 11 23.0311  2.038018  0.412327  230.7994  146.8954    4.9407  20141021  14.5  4.0  253P/PANSTARRS                                           MPC 81473
0254P         2010 10 21.6133  3.184430  0.314839  219.6298  129.9002   32.6401  20141021  11.0  4.0  254P/McNaught                                            MPC 81473
0255P         2017 05  2.7151  1.008129  0.668206  179.6921  279.7307   18.2666  20141021  20.0  4.0  255P/Levy                                                NK   2214
0256P         2013 03 17.4714  2.689375  0.419279  124.1163   81.4408   27.6331  20141021  14.0  2.0  256P/LINEAR                                              MPC 84027
0257P         2013 06  4.4397  2.130152  0.432458  117.8669  207.8562   20.2415  20141021  11.5  4.0  257P/Catalina                                            MPC 88332
0258P         2011 03 20.0020  3.477291  0.210448   25.8814  126.3009    6.7466  20141021  13.0  4.0  258P/PANSTARRS                                           MPC 79655
0259P         2013 01 25.4712  1.801538  0.340206  256.7860   51.9107   15.8806  20141021  15.5  4.0  259P/Garradd                                             MPC 79655
0260P         2012 09 12.5080  1.491345  0.594283   15.5757  351.8628   15.7693  20141021  13.5  4.0  260P/McNaught                                            MPC 82322
0261P         2012 10  2.5132  2.163947  0.396115   58.6619  298.3926    6.3274  20141021  14.0  4.0  261P/Larson                                              MPC 81861
0262P         2012 12  4.2567  1.279304  0.814979  171.1558  217.9862   29.0814  20141021  13.5  4.0  262P/McNaught-Russell                                    MPC 82322
0263P         2012 05 21.1972  1.262751  0.587627   34.5187  105.8703   11.5355  20141021  18.0  4.0  263P/Gibbs                                               MPC 82323
0264P         2011 11 21.9057  2.445958  0.372850  346.4215  220.9138   25.1275  20141021  13.0  4.0  264P/Larsen                                              MPC 81473
0265P         2012 06 10.3703  1.496449  0.646834   32.7427  344.7061   14.7030  20141021  14.5  4.0  265P/LINEAR                                              MPC 79870
0266P         2013 08 31.3374  2.327897  0.340469   97.9654    5.0184    3.4288  20141021  12.5  4.0  266P/Christensen                                         MPC 88332
0267P         2012 08 24.8112  1.317616  0.598019   97.5449  244.3105    5.3493  20141021  19.5  4.0  267P/LONEOS                                              MPC 81862
